STARLINK-4527           
1 53436U 22097BA  26068.32779147  .00002715  00000+0  18855-3 0  9997
2 53436  53.2155 105.4282 0001580  97.6291 262.4881 15.08855683198732
LEMUR-2-STELLA          
1 60533U 24149BT  26068.72657350  .00013685  00000+0  85776-3 0  9992
2 60533  97.6764 150.9122 0001299  95.1117 265.0260 15.09464064 85488
